IRIDIUM 39              
1 25042U 97069D   25076.91301003  .00002145  00000+0  55988-3 0  9990
2 25042  86.3869 250.2532 0015970 249.3797 110.5694 14.48995414435745
IRIDIUM 38              
1 25043U 97069E   25076.80761319  .00001104  00000+0  35888-3 0  9990
2 25043  86.3896 271.6156 0003600  64.7192 295.4379 14.37970993432822
IRIDIUM 42              
1 25077U 97077A   25076.91088149  .00001039  00000+0  34976-3 0  9995
2 25077  86.3902 277.6358 0002719  80.5045 279.6459 14.36218701428098
IRIDIUM 44              
1 25078U 97077B   25076.90315165  .00001303  00000+0  40688-3 0  9997
2 25078  86.3902 259.7841 0001943  35.8142 324.3187 14.40099942430566
IRIDIUM 45              
1 25104U 97082A   25076.57120169  .00035117  00000+0  14124-2 0  9999
2 25104  86.3546  92.2555 0123809 315.0528  44.0741 15.17871434438377
IRIDIUM 24              
1 25105U 97082B   25076.64620340  .00001049  00000+0  31398-3 0  9994
2 25105  86.3883 119.1435 0012308  31.1947 328.9981 14.41947293430027
IRIDIUM 51              
1 25262U 98018A   25076.56948151  .00044582  00000+0  12373-2 0  9992
2 25262  86.3813 100.9475 0098229 239.2672 119.8875 15.31913993432962
IRIDIUM 57              
1 25273U 98019B   25076.80967112  .00001062  00000+0  36066-3 0  9992
2 25273  86.4037 183.5108 0002172  93.5581 266.5864 14.35788931411673
